[{"OBJECT_NAME":"STARLINK-4674","OBJECT_ID":"2022-104D","EPOCH":"2026-03-09T21:30:48.556512","MEAN_MOTION":15.08838266,"ECCENTRICITY":0.00010522,"INCLINATION":53.2169,"RA_OF_ASC_NODE":243.3646,"ARG_OF_PERICENTER":96.2369,"MEAN_ANOMALY":263.8743,"EPHEMERIS_TYPE":0,"CLASSIFICATION_TYPE":"U","NORAD_CAT_ID":53591,"ELEMENT_SET_NO":999,"REV_AT_EPOCH":19599,"BSTAR":-4.6152599e-5,"MEAN_MOTION_DOT":-1.022e-5,"MEAN_MOTION_DDOT":0},{"OBJECT_NAME":"OBJECT F","OBJECT_ID":"2025-292F","EPOCH":"2026-03-09T22:41:00.950496","MEAN_MOTION":15.06065121,"ECCENTRICITY":0.00151037,"INCLINATION":97.6416,"RA_OF_ASC_NODE":145.7425,"ARG_OF_PERICENTER":346.7214,"MEAN_ANOMALY":13.3613,"EPHEMERIS_TYPE":0,"CLASSIFICATION_TYPE":"U","NORAD_CAT_ID":66998,"ELEMENT_SET_NO":999,"REV_AT_EPOCH":1351,"BSTAR":0.00047210602,"MEAN_MOTION_DOT":6.85e-5,"MEAN_MOTION_DDOT":0}]
